[{"OBJECT_NAME":"STARLINK-5581","OBJECT_ID":"2023-013AU","EPOCH":"2026-03-09T09:34:16.326912","MEAN_MOTION":15.02526345,"ECCENTRICITY":0.00010596,"INCLINATION":43.0042,"RA_OF_ASC_NODE":315.0685,"ARG_OF_PERICENTER":243.296,"MEAN_ANOMALY":116.7774,"EPHEMERIS_TYPE":0,"CLASSIFICATION_TYPE":"U","NORAD_CAT_ID":55373,"ELEMENT_SET_NO":999,"REV_AT_EPOCH":17151,"BSTAR":0.00010227581,"MEAN_MOTION_DOT":1.178e-5,"MEAN_MOTION_DDOT":0},{"OBJECT_NAME":"FENGYUN 1C DEB","OBJECT_ID":"1999-025ZJ","EPOCH":"2026-03-09T08:54:25.088544","MEAN_MOTION":14.24354874,"ECCENTRICITY":0.03682357,"INCLINATION":98.8184,"RA_OF_ASC_NODE":25.2526,"ARG_OF_PERICENTER":224.9546,"MEAN_ANOMALY":267.1531,"EPHEMERIS_TYPE":0,"CLASSIFICATION_TYPE":"U","NORAD_CAT_ID":30297,"ELEMENT_SET_NO":999,"REV_AT_EPOCH":96384,"BSTAR":0.0019862484,"MEAN_MOTION_DOT":9.295e-5,"MEAN_MOTION_DDOT":0}]
